start=new Date('2023-01-05T00:00:00.000Z').valueOf();
sats=[{"GP_ID":"222155885","CENTER_NAME":"EARTH","SITE":"AFETR","TLE_LINE2":"2 46674  53.0549  49.8741 0002566  43.5842 316.5349 15.06414665122265","COUNTRY_CODE":"US","REF_FRAME":"TEME","RA_OF_ASC_NODE":"49.8741","REV_AT_EPOCH":"12226","TIME_SYSTEM":"UTC","LAUNCH_DATE":"2020-10-18","INCLINATION":"53.0549","EPOCH":"2023-01-04T12:11:40.296192","MEAN_ELEMENT_THEORY":"SGP4","MEAN_MOTION_DDOT":"0.0000000000000","FILE":"3731823","MEAN_MOTION":"15.06414665","PERIAPSIS":"545.392","OBJECT_ID":"2020-073E","APOAPSIS":"548.946","TLE_LINE1":"1 46674U 20073E   23004.50810528  .00008823  00000-0  61024-3 0  9994","RCS_SIZE":"LARGE","OBJECT_NAME":"STARLINK-1718","ECCENTRICITY":"0.00025660","SEMIMAJOR_AXIS":"6925.304","ARG_OF_PERICENTER":"43.5842","OBJECT_TYPE":"PAYLOAD","MEAN_ANOMALY":"316.5349","BSTAR":"0.00061024000000","EPHEMERIS_TYPE":"0","MEAN_MOTION_DOT":"0.00008823","PERIOD":"95.591","DECAY_DATE":null,"CLASSIFICATION_TYPE":"U","ELEMENT_SET_NO":"999","NORAD_CAT_ID":"46674"},{"ELEMENT_SET_NO":"999","NORAD_CAT_ID":"46675","DECAY_DATE":null,"CLASSIFICATION_TYPE":"U","PERIOD":"95.592","MEAN_MOTION_DOT":"0.00002237","BSTAR":"0.00016903000000","EPHEMERIS_TYPE":"0","MEAN_ANOMALY":"324.0469","OBJECT_TYPE":"PAYLOAD","SEMIMAJOR_AXIS":"6925.329","ARG_OF_PERICENTER":"36.0684","OBJECT_NAME":"STARLINK-1720","ECCENTRICITY":"0.00024400","RCS_SIZE":"LARGE","APOAPSIS":"548.883","TLE_LINE1":"1 46675U 20073F   23004.50441106  .00002237  00000-0  16903-3 0  9996","OBJECT_ID":"2020-073F","PERIAPSIS":"545.504","MEAN_MOTION":"15.06406521","FILE":"3731823","MEAN_MOTION_DDOT":"0.0000000000000","LAUNCH_DATE":"2020-10-18","INCLINATION":"53.0554","EPOCH":"2023-01-04T12:06:21.115584","MEAN_ELEMENT_THEORY":"SGP4","TIME_SYSTEM":"UTC","REF_FRAME":"TEME","RA_OF_ASC_NODE":"49.8944","REV_AT_EPOCH":"12226","COUNTRY_CODE":"US","SITE":"AFETR","TLE_LINE2":"2 46675  53.0554  49.8944 0002440  36.0684 324.0469 15.06406521122268","GP_ID":"222157136","CENTER_NAME":"EARTH"},{"CLASSIFICATION_TYPE":"U","DECAY_DATE":null,"NORAD_CAT_ID":"46677","ELEMENT_SET_NO":"999","BSTAR":"0.00018257000000","EPHEMERIS_TYPE":"0","MEAN_ANOMALY":"315.4105","PERIOD":"95.592","MEAN_MOTION_DOT":"0.00002438","OBJECT_NAME":"STARLINK-1766","ECCENTRICITY":"0.00023150","OBJECT_TYPE":"PAYLOAD","SEMIMAJOR_AXIS":"6925.356","ARG_OF_PERICENTER":"44.7070","TLE_LINE1":"1 46677U 20073H   23004.43438141  .00002438  00000-0  18257-3 0  9992","APOAPSIS":"548.824","RCS_SIZE":"LARGE","MEAN_MOTION":"15.06397662","FILE":"3731823","MEAN_MOTION_DDOT":"0.0000000000000","OBJECT_ID":"2020-073H","PERIAPSIS":"545.618","LAUNCH_DATE":"2020-10-18","INCLINATION":"53.0569","MEAN_ELEMENT_THEORY":"SGP4","EPOCH":"2023-01-04T10:25:30.553824","TIME_SYSTEM":"UTC","COUNTRY_CODE":"US","RA_OF_ASC_NODE":"50.2167","REV_AT_EPOCH":"12225","REF_FRAME":"TEME","CENTER_NAME":"EARTH","GP_ID":"222157379","TLE_LINE2":"2 46677  53.0569  50.2167 0002315  44.7070 315.4105 15.06397662122250","SITE":"AFETR"},{"MEAN_ANOMALY":"322.4255","BSTAR":"0.00025942000000","EPHEMERIS_TYPE":"0","MEAN_MOTION_DOT":"0.00003585","PERIOD":"95.592","CLASSIFICATION_TYPE":"U","DECAY_DATE":null,"NORAD_CAT_ID":"46679","ELEMENT_SET_NO":"999","TLE_LINE1":"1 46679U 20073K   23004.37356482  .00003585  00000-0  25942-3 0  9997","APOAPSIS":"548.793","RCS_SIZE":"LARGE","OBJECT_NAME":"STARLINK-1773","ECCENTRICITY":"0.00023100","ARG_OF_PERICENTER":"37.6895","SEMIMAJOR_AXIS":"6925.329","OBJECT_TYPE":"PAYLOAD","TIME_SYSTEM":"UTC","INCLINATION":"53.0556","LAUNCH_DATE":"2020-10-18","MEAN_ELEMENT_THEORY":"SGP4","EPOCH":"2023-01-04T08:57:56.000448","MEAN_MOTION_DDOT":"0.0000000000000","FILE":"3731823","MEAN_MOTION":"15.06406534","PERIAPSIS":"545.594","OBJECT_ID":"2020-073K","CENTER_NAME":"EARTH","GP_ID":"222156136","TLE_LINE2":"2 46679  53.0556  30.4774 0002310  37.6895 322.4255 15.06406534122526","SITE":"AFETR","COUNTRY_CODE":"US","RA_OF_ASC_NODE":"30.4774","REV_AT_EPOCH":"12252","REF_FRAME":"TEME"},{"BSTAR":"0.00000769760000","EPHEMERIS_TYPE":"0","MEAN_ANOMALY":"300.6508","PERIOD":"95.593","MEAN_MOTION_DOT":"-0.00000167","DECAY_DATE":null,"CLASSIFICATION_TYPE":"U","ELEMENT_SET_NO":"999","NORAD_CAT_ID":"46680","APOAPSIS":"548.443","TLE_LINE1":"1 46680U 20073L   23004.44222014 -.00000167  00000-0  76976-5 0  9999","RCS_SIZE":"LARGE","ECCENTRICITY":"0.00017300","OBJECT_NAME":"STARLINK-1774","OBJECT_TYPE":"PAYLOAD","ARG_OF_PERICENTER":"59.4652","SEMIMAJOR_AXIS":"6925.380","INCLINATION":"53.0543","LAUNCH_DATE":"2020-10-18","MEAN_ELEMENT_THEORY":"SGP4","EPOCH":"2023-01-04T10:36:47.820096","TIME_SYSTEM":"UTC","MEAN_MOTION":"15.06389884","FILE":"3731823","MEAN_MOTION_DDOT":"0.0000000000000","OBJECT_ID":"2020-073L","PERIAPSIS":"546.046","GP_ID":"222156386","CENTER_NAME":"EARTH","SITE":"AFETR","TLE_LINE2":"2 46680  53.0543  65.1771 0001730  59.4652 300.6508 15.06389884122048","COUNTRY_CODE":"US","REF_FRAME":"TEME","REV_AT_EPOCH":"12204","RA_OF_ASC_NODE":"65.1771"},{"ELEMENT_SET_NO":"999","NORAD_CAT_ID":"46681","DECAY_DATE":null,"CLASSIFICATION_TYPE":"U","MEAN_MOTION_DOT":"0.00005937","PERIOD":"95.591","MEAN_ANOMALY":"324.2047","BSTAR":"0.00041697000000","EPHEMERIS_TYPE":"0","SEMIMAJOR_AXIS":"6925.310","ARG_OF_PERICENTER":"35.9106","OBJECT_TYPE":"PAYLOAD","ECCENTRICITY":"0.00024400","OBJECT_NAME":"STARLINK-1775","RCS_SIZE":"LARGE","APOAPSIS":"548.864","TLE_LINE1":"1 46681U 20073M   23004.41272242  .00005937  00000-0  41697-3 0  9994","PERIAPSIS":"545.485","OBJECT_ID":"2020-073M","FILE":"3731823","MEAN_MOTION_DDOT":"0.0000000000000","MEAN_MOTION":"15.06412701","TIME_SYSTEM":"UTC","INCLINATION":"53.0565","LAUNCH_DATE":"2020-10-18","EPOCH":"2023-01-04T09:54:19.217088","MEAN_ELEMENT_THEORY":"SGP4","REF_FRAME":"TEME","REV_AT_EPOCH":"12203","RA_OF_ASC_NODE":"65.3125","COUNTRY_CODE":"US","SITE":"AFETR","TLE_LINE2":"2 46681  53.0565  65.3125 0002440  35.9106 324.2047 15.06412701122034","GP_ID":"222156637","CENTER_NAME":"EARTH"},{"MEAN_MOTION":"15.06416255","FILE":"3731823","MEAN_MOTION_DDOT":"0.0000000000000","OBJECT_ID":"2020-073N","PERIAPSIS":"545.684","INCLINATION":"53.0537","LAUNCH_DATE":"2020-10-18","MEAN_ELEMENT_THEORY":"SGP4","EPOCH":"2023-01-04T10:31:28.641216","TIME_SYSTEM":"UTC","COUNTRY_CODE":"US","RA_OF_ASC_NODE":"65.1972","REV_AT_EPOCH":"12204","REF_FRAME":"TEME","CENTER_NAME":"EARTH","GP_ID":"222156881","TLE_LINE2":"2 46682  53.0537  65.1972 0002137  38.0866 322.0274 15.06416255122049","SITE":"AFETR","CLASSIFICATION_TYPE":"U","DECAY_DATE":null,"NORAD_CAT_ID":"46682","ELEMENT_SET_NO":"999","BSTAR":"0.00052890000000","EPHEMERIS_TYPE":"0","MEAN_ANOMALY":"322.0274","PERIOD":"95.591","MEAN_MOTION_DOT":"0.00007608","OBJECT_NAME":"STARLINK-1776","ECCENTRICITY":"0.00021370","OBJECT_TYPE":"PAYLOAD","SEMIMAJOR_AXIS":"6925.299","ARG_OF_PERICENTER":"38.0866","TLE_LINE1":"1 46682U 20073N   23004.43852594  .00007608  00000-0  52890-3 0  9995","APOAPSIS":"548.644","RCS_SIZE":"LARGE"},{"TIME_SYSTEM":"UTC","MEAN_ELEMENT_THEORY":"SGP4","LAUNCH_DATE":"2020-10-18","INCLINATION":"53.0532","EPOCH":"2023-01-04T19:48:07.184160","MEAN_MOTION_DDOT":"0.0000000000000","FILE":"3732024","MEAN_MOTION":"15.06414037","PERIAPSIS":"545.945","OBJECT_ID":"2020-073Q","CENTER_NAME":"EARTH","GP_ID":"222193539","TLE_LINE2":"2 46684  53.0532  48.4654 0001770  62.7026 297.4143 15.06414037122799","SITE":"AFETR","COUNTRY_CODE":"US","RA_OF_ASC_NODE":"48.4654","REV_AT_EPOCH":"12279","REF_FRAME":"TEME","MEAN_ANOMALY":"297.4143","EPHEMERIS_TYPE":"0","BSTAR":"0.00046896000000","MEAN_MOTION_DOT":"0.00006713","PERIOD":"95.591","CLASSIFICATION_TYPE":"U","DECAY_DATE":null,"NORAD_CAT_ID":"46684","ELEMENT_SET_NO":"999","TLE_LINE1":"1 46684U 20073Q   23004.82508315  .00006713  00000-0  46896-3 0  9994","APOAPSIS":"548.396","RCS_SIZE":"LARGE","ECCENTRICITY":"0.00017700","OBJECT_NAME":"STARLINK-1780","SEMIMAJOR_AXIS":"6925.306","ARG_OF_PERICENTER":"62.7026","OBJECT_TYPE":"PAYLOAD"},{"OBJECT_NAME":"STARLINK-1781","ECCENTRICITY":"0.00015020","ARG_OF_PERICENTER":"59.1954","SEMIMAJOR_AXIS":"6925.307","OBJECT_TYPE":"PAYLOAD","APOAPSIS":"548.212","TLE_LINE1":"1 46685U 20073R   23004.41546883  .00010277  00000-0  70753-3 0  9991","RCS_SIZE":"LARGE","DECAY_DATE":null,"CLASSIFICATION_TYPE":"U","ELEMENT_SET_NO":"999","NORAD_CAT_ID":"46685","MEAN_ANOMALY":"300.9183","EPHEMERIS_TYPE":"0","BSTAR":"0.00070753000000","MEAN_MOTION_DOT":"0.00010277","PERIOD":"95.591","COUNTRY_CODE":"US","REF_FRAME":"TEME","RA_OF_ASC_NODE":"65.2755","REV_AT_EPOCH":"12203","GP_ID":"222155886","CENTER_NAME":"EARTH","SITE":"AFETR","TLE_LINE2":"2 46685  53.0557  65.2755 0001502  59.1954 300.9183 15.06413712122039","MEAN_MOTION_DDOT":"0.0000000000000","FILE":"3731823","MEAN_MOTION":"15.06413712","PERIAPSIS":"546.131","OBJECT_ID":"2020-073R","TIME_SYSTEM":"UTC","LAUNCH_DATE":"2020-10-18","INCLINATION":"53.0557","EPOCH":"2023-01-04T09:58:16.506912","MEAN_ELEMENT_THEORY":"SGP4"},{"DECAY_DATE":null,"CLASSIFICATION_TYPE":"U","ELEMENT_SET_NO":"999","NORAD_CAT_ID":"46686","BSTAR":"0.00057845000000","EPHEMERIS_TYPE":"0","MEAN_ANOMALY":"317.3121","PERIOD":"95.590","MEAN_MOTION_DOT":"0.00008351","OBJECT_NAME":"STARLINK-1783","ECCENTRICITY":"0.00022830","OBJECT_TYPE":"PAYLOAD","SEMIMAJOR_AXIS":"6925.268","ARG_OF_PERICENTER":"42.8046","APOAPSIS":"548.714","TLE_LINE1":"1 46686U 20073S   23004.85777053  .00008351  00000-0  57845-3 0  9992","RCS_SIZE":"LARGE","MEAN_MOTION":"15.06426206","FILE":"3732089","MEAN_MOTION_DDOT":"0.0000000000000","OBJECT_ID":"2020-073S","PERIAPSIS":"545.552","INCLINATION":"53.0532","LAUNCH_DATE":"2020-10-18","MEAN_ELEMENT_THEORY":"SGP4","EPOCH":"2023-01-04T20:35:11.373792","TIME_SYSTEM":"UTC","COUNTRY_CODE":"US","REF_FRAME":"TEME","RA_OF_ASC_NODE":"63.2607","REV_AT_EPOCH":"12258","GP_ID":"222195057","CENTER_NAME":"EARTH","SITE":"AFETR","TLE_LINE2":"2 46686  53.0532  63.2607 0002283  42.8046 317.3121 15.06426206122581"}];
